{"type":"FeatureCollection","crs":{"type":"name","properties":{"name":"urn:ogc:def:crs:OGC:1.3:CRS84"}},"features":[{"type":"Feature","properties":{"SIG_CD":"11110","SIG_ENG_NM":"Jongno-gu","SIG_KOR_NM":"종로구"},"geometry":{"type":"Polygon","coordinates":[[[127.00864326221884,37.58046825204727],[127.01998566714433,37.57831921494639],[127.02168099116777,37.57194895809066],[127.00180882768406,37.56956870158468],[126.98339342004054,37.56886594542075],[126.97428755926278,37.5692802275931],[126.96753607297589,37.56666549425852],[126.95973010049947,37.57272658446589],[126.95737333163864,37.58700776672241],[126.9526651090119,37.601134749843226],[126.95637915593018,37.628219727828956],[126.97835333209018,37.5974406804187],[126.99846867642223,37.5924711667139],[127.00864326221884,37.58046825204727]]]}},{"type":"Feature","properties":{"SIG_CD":"11140","SIG_ENG_NM":"Jung-gu","SIG_KOR_NM":"중구"},"geometry":{"type":"Polygon","coordinates":[[[127.02313682632543,37.57196080977203],[127.02266434922784,37.55925780211901],[127.01204876314941,37.549181368816555],[126.99400941968987,37.54840984653285],[126.96232719978083,37.55199065221794],[126.96389984487136,37.55943164835469],[126.96853657314698,37.563541266289626],[126.9709481275853,37.56870175962674],[126.97705751356946,37.56924659643491],[126.98903603514408,37.568103647938294],[127.00986312033037,37.569765777528794],[127.02313682632543,37.57196080977203]]]}},{"type":"Feature","properties":{"SIG_CD":"11170","SIG_ENG_NM":"Yongsan-gu","SIG_KOR_NM":"용산구"},"geometry":{"type":"Polygon","coordinates":[[[126.96918343789535,37.555662570962795],[127.00219835602081,37.549711168686166],[127.00847934133576,37.525495085243975],[126.9513041547962,37.51707326637113],[126.9521138917497,37.53677413234995],[126.9637716121603,37.54979607482849],[126.96918343789535,37.555662570962795]]]}},{"type":"Feature","properties":{"SIG_CD":"11200","SIG_ENG_NM":"Seongdong-gu","SIG_KOR_NM":"성동구"},"geometry":{"type":"Polygon","coordinates":[[[127.04341316154634,37.572337149444515],[127.01398567940616,37.53896674221396],[127.0161623643744,37.552610047767],[127.02642177762802,37.56324507344997],[127.03534777119587,37.57188615172665],[127.04341316154634,37.572337149444515]]]}},{"type":"Feature","properties":{"SIG_CD":"11215","SIG_ENG_NM":"Gwangjin-gu","SIG_KOR_NM":"광진구"},"geometry":{"type":"Polygon","coordinates":[[[127.10166491936154,37.57240065825183],[127.11147098977838,37.54720336637678],[127.06938961950041,37.52377403554053],[127.09945252100293,37.572738411255074],[127.10166491936154,37.57240065825183]]]}},{"type":"Feature","properties":{"SIG_CD":"11230","SIG_ENG_NM":"Dongdaemun-gu","SIG_KOR_NM":"동대문구"},"geometry":{"type":"Polygon","coordinates":[[[127.0710794642156,37.607321718645],[127.0742542681666,37.582476585597746],[127.04190761850556,37.57296865367897],[127.02315751136628,37.577451764740374],[127.04016438221372,37.59457403060499],[127.06010103546092,37.603055057235416],[127.0704596764511,37.60722437979699],[127.0710794642156,37.607321718645]]]}},{"type":"Feature","properties":{"SIG_CD":"11260","SIG_ENG_NM":"Jungnang-gu","SIG_KOR_NM":"중랑구"},"geometry":{"type":"Polygon","coordinates":[[[127.11130532076052,37.620691840347845],[127.10277782377325,37.578552602022725],[127.07648035649297,37.579165474474166],[127.07043260384104,37.590531713879514],[127.07456414082189,37.617004324979085],[127.09292477612806,37.61809945017127],[127.09733908591008,37.619803306025794],[127.11130532076052,37.620691840347845]]]}},{"type":"Feature","properties":{"SIG_CD":"11290","SIG_ENG_NM":"Seongbuk-gu","SIG_KOR_NM":"성북구"},"geometry":{"type":"Polygon","coordinates":[[[127.01059113253233,37.580253773768696],[126.99650736756665,37.59212168889893],[126.9867710182505,37.604586540983526],[126.9960412862055,37.62934656624987],[127.01449081682962,37.61468141410049],[127.03034426593963,37.611307522119546],[127.04470539094054,37.619493057892505],[127.06993696385973,37.61554158998082],[127.06231030064362,37.605157725488795],[127.04550816924952,37.59661373583507],[127.02902000232147,37.58233670233535],[127.01756828796141,37.57973721668762],[127.01059113253233,37.580253773768696]]]}},{"type":"Feature","properties":{"SIG_CD":"11305","SIG_ENG_NM":"Gangbuk-gu","SIG_KOR_NM":"강북구"},"geometry":{"type":"Polygon","coordinates":[[[127.00456669928406,37.68507980989074],[127.0146021830007,37.66096151418044],[127.02514712115853,37.64662873859085],[127.03483075094886,37.63752175139665],[127.04588065245454,37.62160091892599],[127.03335935634409,37.61064761948184],[127.01763673137634,37.61456022631829],[126.99789489346354,37.62753820520406],[126.99408644306011,37.66903978996551],[127.00456669928406,37.68507980989074]]]}},{"type":"Feature","properties":{"SIG_CD":"11320","SIG_ENG_NM":"Dobong-gu","SIG_KOR_NM":"도봉구"},"geometry":{"type":"Polygon","coordinates":[[[127.01508681387975,37.649288344708744],[127.01637374743778,37.66737031705785],[127.04217242589209,37.695062911718686],[127.05161513519653,37.66069707950086],[127.05266966306502,37.64211964060216],[127.04624125491722,37.63885930959614],[127.03724563003769,37.636531655465625],[127.02824399910419,37.64452767772873],[127.01508681387975,37.649288344708744]]]}},{"type":"Feature","properties":{"SIG_CD":"11350","SIG_ENG_NM":"Nowon-gu","SIG_KOR_NM":"노원구"},"geometry":{"type":"Polygon","coordinates":[[[127.11084941976728,37.63840887928123],[127.09554728876,37.619174340932645],[127.07447399848037,37.617038158982005],[127.05412174226123,37.62005066517846],[127.04658659707492,37.64114118776705],[127.05398604342604,37.64077436007146],[127.04816152612757,37.671188928012796],[127.07339823098206,37.694100876745594],[127.11084941976728,37.63840887928123]]]}},{"type":"Feature","properties":{"SIG_CD":"11380","SIG_ENG_NM":"Eunpyeong-gu","SIG_KOR_NM":"은평구"},"geometry":{"type":"Polygon","coordinates":[[[126.95171836393132,37.65488968787277],[126.94892790207322,37.623567021339966],[126.9322097706182,37.595801392307514],[126.91564417172152,37.58415569158455],[126.90973090127723,37.58376494430819],[126.88524949234588,37.58764942908585],[126.89982658458533,37.59346775848086],[126.90622233359494,37.64793845356372],[126.93221507284498,37.65037862472329],[126.95171836393132,37.65488968787277]]]}},{"type":"Feature","properties":{"SIG_CD":"11410","SIG_ENG_NM":"Seodaemun-gu","SIG_KOR_NM":"서대문구"},"geometry":{"type":"Polygon","coordinates":[[[126.95267536122061,37.60274008203365],[126.95745984820182,37.58949759957767],[126.95859599415998,37.57383935532542],[126.96705468388306,37.56542887205878],[126.96571349096872,37.56046176144552],[126.94111439146312,37.556493682683005],[126.90220480878163,37.57647090128349],[126.91042806312883,37.584426762307544],[126.91968795513024,37.583256352595015],[126.93943530063801,37.59785983800968],[126.95267536122061,37.60274008203365]]]}},{"type":"Feature","properties":{"SIG_CD":"11440","SIG_ENG_NM":"Mapo-gu","SIG_KOR_NM":"마포구"},"geometry":{"type":"Polygon","coordinates":[[[126.88888180909403,37.584638200543324],[126.94182570580219,37.556573340550756],[126.96236877442941,37.55147952160389],[126.95409576875694,37.53893215124817],[126.93432234511852,37.53983873019149],[126.86265476373073,37.56524608683946],[126.88384556720627,37.58905177206632],[126.88888180909403,37.584638200543324]]]}},{"type":"Feature","properties":{"SIG_CD":"11470","SIG_ENG_NM":"Yangcheon-gu","SIG_KOR_NM":"양천구"},"geometry":{"type":"Polygon","coordinates":[[[126.87404967110731,37.54693630093941],[126.88419649987661,37.54448260677509],[126.89021799207217,37.53104001441322],[126.88067462427234,37.527550529297166],[126.87945660540686,37.51751754740474],[126.8763520252604,37.510806104027736],[126.87064163010128,37.505752071659],[126.84469889268027,37.50692923273624],[126.82883723793258,37.52650853924589],[126.82976664573938,37.54361388120553],[126.85041297228386,37.52809120047295],[126.8639686243994,37.550389315675574],[126.87404967110731,37.54693630093941]]]}},{"type":"Feature","properties":{"SIG_CD":"11500","SIG_ENG_NM":"Gangseo-gu","SIG_KOR_NM":"강서구"},"geometry":{"type":"Polygon","coordinates":[[[126.80644936766083,37.602239406561516],[126.87802809569202,37.552412072742534],[126.87179330970201,37.547279599063856],[126.86349938242648,37.53691798364223],[126.8330597381611,37.54184642918351],[126.82222344047149,37.5406955137682],[126.79946231990985,37.5377257494024],[126.78819252064348,37.545165853977196],[126.7688580351326,37.55150694337477],[126.77277247343548,37.55788823728644],[126.77684713933033,37.563491472811045],[126.7820878881693,37.57097923877874],[126.79238540207564,37.579687655092364],[126.79487616871285,37.5846193005557],[126.80086233623501,37.58902360904474],[126.79716897535147,37.597170042207296],[126.80644936766083,37.602239406561516]],[[126.82145138222147,37.56215196629074],[126.8214586602365,37.562142399887385],[126.82145888709921,37.562142193006075],[126.82145138222147,37.56215196629074]],[[126.81623284280639,37.5523439555647],[126.81622790717144,37.55234000148632],[126.81623513592866,37.55234564401312],[126.81623284280639,37.5523439555647]],[[126.81528833123838,37.54559054117428],[126.8152962059297,37.54559096804807],[126.81529956599577,37.5455912526537],[126.81528833123838,37.54559054117428]],[[126.82404514766849,37.55971927890038],[126.82404938453453,37.5597176004202],[126.82406124499057,37.55971311330403],[126.82404514766849,37.55971927890038]],[[126.80878502518162,37.56242873736924],[126.80880302657893,37.56244424572241],[126.80880599654544,37.56244686343449],[126.80878502518162,37.56242873736924]],[[126.79909068998919,37.56311932173459],[126.79909099814373,37.563118376226],[126.79910952829485,37.56306744813773],[126.79909068998919,37.56311932173459]],[[126.80990913018829,37.56323914937555],[126.80991742187348,37.563245406675875],[126.80992131853964,37.56324860249554],[126.80990913018829,37.56323914937555]],[[126.81375457854217,37.55047019925404],[126.81367477709286,37.55042417592209],[126.81375758446356,37.55047189789427],[126.81375457854217,37.55047019925404]],[[126.81181573275049,37.56407604708309],[126.81182335242157,37.56407514031796],[126.81182786886286,37.564075003416114],[126.81181573275049,37.56407604708309]],[[126.81507026750347,37.54570339752549],[126.81507262509773,37.5457018245145],[126.81508348017613,37.54569596719466],[126.81507026750347,37.54570339752549]],[[126.80948940126754,37.562916130122154],[126.8094992888791,37.562922344998285],[126.80950140105595,37.562924042290206],[126.80948940126754,37.562916130122154]],[[126.81664223521467,37.590553200771325],[126.81660746211479,37.59050807009606],[126.81664197580005,37.59055279492243],[126.816651196776,37.59056473838651],[126.81664872481457,37.59056163513161],[126.81664223521467,37.590553200771325]],[[126.82359760818086,37.55969411651182],[126.82373095019388,37.55969628151671],[126.8237314593678,37.55969633634268],[126.82359760818086,37.55969411651182]],[[126.79761751398037,37.56471740899223],[126.79762823474199,37.564783118488116],[126.79763565687988,37.564821558411815],[126.79762903779577,37.56478748065327],[126.79762823474199,37.564783118488116],[126.79762763237801,37.564779873893755],[126.79761751398037,37.56471740899223]],[[126.81195071036086,37.564065488061885],[126.81198961340658,37.5640649919039],[126.81199236345589,37.56406513146644],[126.81195071036086,37.564065488061885]],[[126.81508040144573,37.54463754173005],[126.81506652850523,37.54460120089569],[126.81508145947589,37.544639804886856],[126.81508040144573,37.54463754173005]],[[126.81966210618151,37.564307044758344],[126.81970079997151,37.56424830589539],[126.81970204912476,37.56424661396216],[126.81966210618151,37.564307044758344]],[[126.82408058134703,37.55968695964002],[126.82408183566594,37.55968301519566],[126.82410069014259,37.559635741635425],[126.82408058134703,37.55968695964002]],[[126.82156889154534,37.562042342031106],[126.82157120520041,37.56204037239344],[126.82161459957905,37.562012003338054],[126.82156889154534,37.562042342031106]],[[126.79841197433461,37.56712914406861],[126.79838646243024,37.56701618849681],[126.79841283767374,37.56713217286982],[126.79841197433461,37.56712914406861]],[[126.82482141843936,37.558621525463465],[126.82486215460952,37.558591178051586],[126.82486473826997,37.55858981241434],[126.82482141843936,37.558621525463465]],[[126.81522598990648,37.54531886629255],[126.81521943056612,37.54529006929801],[126.8152272866778,37.54532068833908],[126.81522598990648,37.54531886629255]],[[126.81560101916718,37.564378384998875],[126.81561412511168,37.56437877504016],[126.81561666658791,37.564380869332965],[126.81560101916718,37.564378384998875]],[[126.82116664022197,37.56303844620138],[126.82116913446887,37.563036702094806],[126.82117107316174,37.563035353574264],[126.82124757164745,37.56299407901371],[126.82116913446887,37.563036702094806],[126.82108638714365,37.563097167106285],[126.82116664022197,37.56303844620138]],[[126.82180193429872,37.556684068240074],[126.82180005310344,37.55668039835227],[126.82182140016329,37.55668881904726],[126.82180193429872,37.556684068240074]],[[126.81678138376539,37.55276320746663],[126.81628808835045,37.55238627161308],[126.81678455822063,37.55276546490639],[126.81678138376539,37.55276320746663]],[[126.82269703182799,37.561589336322555],[126.822698276269,37.561584833266714],[126.82273758391507,37.56152812153009],[126.82269703182799,37.561589336322555]],[[126.80064088586109,37.56240417948545],[126.80064866407658,37.562335771713684],[126.80065057847553,37.562335171308774],[126.80064088586109,37.56240417948545]],[[126.79878434858371,37.568009651789204],[126.79864894350432,37.56785315205353],[126.79878586446031,37.56800997874739],[126.79878434858371,37.568009651789204]],[[126.8241354338282,37.55952683730415],[126.8241571797606,37.55945337634302],[126.8241605464843,37.559451128928984],[126.8241354338282,37.55952683730415]],[[126.8070047032346,37.561475834306705],[126.80682959573154,37.561416702184246],[126.80700522679447,37.56147470893434],[126.8070047032346,37.561475834306705]],[[126.80068500850851,37.56230570451045],[126.80094759410146,37.56218676998868],[126.80095299582584,37.56218567995952],[126.80068500850851,37.56230570451045]],[[126.82066714439271,37.555847416245285],[126.82066161888118,37.55584383986598],[126.82066992369343,37.55584469951539],[126.82083994980108,37.55580919954987],[126.82066714439271,37.555847416245285],[126.82078105605021,37.555921093337396],[126.82077956402168,37.55592032521302],[126.82066714439271,37.555847416245285]]]}},{"type":"Feature","properties":{"SIG_CD":"11530","SIG_ENG_NM":"Guro-gu","SIG_KOR_NM":"구로구"},"geometry":{"type":"Polygon","coordinates":[[[126.87948428363137,37.517775206651464],[126.89367897385712,37.49939150681433],[126.8997101901329,37.48070363311763],[126.88505408173619,37.483125628671495],[126.87449239887819,37.49021660139147],[126.86581366772901,37.492145227174746],[126.84586904128062,37.479375143392694],[126.82953683874435,37.476595996987754],[126.81954845929502,37.48261915669975],[126.82098847503072,37.490651146065005],[126.82705821085356,37.50850108180128],[126.86183263187634,37.50714671061419],[126.87424522335607,37.50697996854909],[126.87509619679051,37.51238320424811],[126.87948428363137,37.517775206651464]]]}},{"type":"Feature","properties":{"SIG_CD":"11545","SIG_ENG_NM":"Geumcheon-gu","SIG_KOR_NM":"금천구"},"geometry":{"type":"Polygon","coordinates":[[[126.87455644219213,37.48536674926904],[126.88950566379097,37.479527045103815],[126.90856121444394,37.472955841210805],[126.92425225738562,37.45339761070329],[126.90365412706981,37.43412980355802],[126.89265047941915,37.451967438175586],[126.88432807642872,37.46645213709078],[126.87455644219213,37.48536674926904]]]}},{"type":"Feature","properties":{"SIG_CD":"11560","SIG_ENG_NM":"Yeongdeungpo-gu","SIG_KOR_NM":"영등포구"},"geometry":{"type":"Polygon","coordinates":[[[126.88046390965634,37.55626903548101],[126.9438583009821,37.53446204974253],[126.92086364006546,37.501333329571615],[126.90524361244128,37.4875003031814],[126.89276221337866,37.50083298518865],[126.87820012245477,37.519095121969734],[126.8834515181013,37.52733867914082],[126.88873767422466,37.53283734799568],[126.8803651647701,37.548446086421194],[126.88046390965634,37.55626903548101]]]}},{"type":"Feature","properties":{"SIG_CD":"11590","SIG_ENG_NM":"Dongjak-gu","SIG_KOR_NM":"동작구"},"geometry":{"type":"Polygon","coordinates":[[[126.95470859450165,37.516032608325425],[126.98281095105975,37.49267357512133],[126.9613897525619,37.489132384044474],[126.94009655828174,37.49290939795737],[126.92416188663023,37.490204923977466],[126.9066434011673,37.48921457076413],[126.92241077988133,37.505160066520546],[126.95470859450165,37.516032608325425]]]}},{"type":"Feature","properties":{"SIG_CD":"11620","SIG_ENG_NM":"Gwanak-gu","SIG_KOR_NM":"관악구"},"geometry":{"type":"Polygon","coordinates":[[[126.92801917197241,37.495022382772454],[126.95514788791658,37.49129390531268],[126.98290561230012,37.47218875459962],[126.97325667570524,37.45304866822598],[126.93737311978965,37.44084317340044],[126.9174807695291,37.457112736725],[126.91042861218412,37.47835514538503],[126.90233981943737,37.483954825393894],[126.92508910102606,37.49158405728764],[126.92801917197241,37.495022382772454]]]}},{"type":"Feature","properties":{"SIG_CD":"11650","SIG_ENG_NM":"Seocho-gu","SIG_KOR_NM":"서초구"},"geometry":{"type":"Polygon","coordinates":[[[127.01317164880014,37.52259182651743],[127.0417532935668,37.484922132374805],[127.07612085337108,37.47415983189149],[127.07299337217401,37.442017590436784],[127.042906874171,37.436139650459914],[127.03397709421537,37.462265151360825],[127.01863685903758,37.455849276020494],[126.99369528158277,37.46146942992988],[126.98236358350664,37.473309578712346],[126.98202616557752,37.50204440704268],[127.01317164880014,37.52259182651743]]]}},{"type":"Feature","properties":{"SIG_CD":"11680","SIG_ENG_NM":"Gangnam-gu","SIG_KOR_NM":"강남구"},"geometry":{"type":"Polygon","coordinates":[[[127.0396797185555,37.535840140918765],[127.0776392367842,37.50185311152555],[127.09931658801443,37.49468265755889],[127.1140983311059,37.48019296326106],[127.11329187757546,37.46083680844238],[127.08450041459997,37.4742809794269],[127.05061818636028,37.47141050785134],[127.01431423275332,37.523841550762825],[127.0396797185555,37.535840140918765]]]}},{"type":"Feature","properties":{"SIG_CD":"11710","SIG_ENG_NM":"Songpa-gu","SIG_KOR_NM":"송파구"},"geometry":{"type":"Polygon","coordinates":[[[127.11310504443003,37.543170920447174],[127.1381910079519,37.51940337603029],[127.14088483141843,37.507437531627346],[127.15845747054595,37.491956051478205],[127.13956032427213,37.47408677498246],[127.12504582620763,37.46897962985904],[127.11178695429327,37.48358110474753],[127.09367382500207,37.49699589675532],[127.06891630333095,37.509922224459295],[127.10073129978178,37.535417382153064],[127.11310504443003,37.543170920447174]]]}},{"type":"Feature","properties":{"SIG_CD":"11740","SIG_ENG_NM":"Gangdong-gu","SIG_KOR_NM":"강동구"},"geometry":{"type":"Polygon","coordinates":[[[127.17833865259387,37.57058448602307],[127.18268249132697,37.547488942369114],[127.15650383139571,37.53745143346365],[127.12037357705354,37.53010263750913],[127.11525258096357,37.55675982385771],[127.17689797419955,37.57333717593125],[127.17833865259387,37.57058448602307]]]}}]}