{"type":"FeatureCollection","features":[{"type":"Feature","properties":{"name":"서울특별시 경계"},"geometry":{"type":"Polygon","coordinates":[[[127.18262429506761,37.55193794904104],[127.17859036095876,37.56992300965048],[127.1105237939864,37.588457671056915],[127.11804728546007,37.604602297471544],[127.11714701957051,37.617888439112086],[127.11163231657498,37.63150328414402],[127.1111546995062,37.64256350444993],[127.1053121443414,37.6454043321433],[127.09575076712493,37.67267301829554],[127.09599595819121,37.68907104667083],[127.08384328571226,37.694268890326946],[127.07120144359499,37.69371815720966],[127.04863168161688,37.694062964838025],[127.02768734560202,37.70093738150475],[127.02531521256459,37.699580522197365],[127.00966621339057,37.69669983079182],[126.99519724296161,37.68133502961518],[126.98119335973374,37.656487708906184],[126.97132755925192,37.631618657634604],[126.95455201974353,37.65453204585968],[126.94756485216162,37.659215385935504],[126.94269721761108,37.65791945834263],[126.92969937254531,37.650048155887596],[126.9191533065376,37.64547416409872],[126.90480202297938,37.649201015078546],[126.91079420452367,37.6400261341916],[126.90890316967173,37.62745855546493],[126.90336122953278,37.61883930644619],[126.90079052565079,37.61204487252599],[126.89998230219679,37.602040181369055],[126.8846376155988,37.59316425455024],[126.87846515443277,37.586368955510544],[126.79764234387103,37.59928282597306],[126.79344106614386,37.58451964458579],[126.7804581115786,37.57036127542351],[126.76448395819257,37.555369395210484],[126.76804906254341,37.551794789346026],[126.79436878053967,37.53595548662549],[126.8234013093174,37.51495337667537],[126.81301239793999,37.496400655870715],[126.81959783316603,37.480613939319156],[126.81462854489153,37.47464944208558],[126.83982514430407,37.474988711025254],[126.87856600286398,37.473107513855865],[126.8837821440685,37.463181518894665],[126.88953577114722,37.45294663336001],[126.89550546062081,37.44577815665776],[126.90298757065891,37.434067584859974],[126.90481844311039,37.43399448414134],[126.9218874928071,37.44309696965236],[126.93862190725254,37.43602851496143],[126.94197961615998,37.43750565484961],[126.95510885520224,37.438692147191354],[126.96294292661409,37.440280457835684],[126.97284353285205,37.45238238291646],[126.98239804442959,37.45589120022169],[126.98917067409342,37.45838563392964],[127.00446966943686,37.464073275377174],[127.01624473145922,37.45520763186774],[127.03780010756734,37.438268266707425],[127.05737902470787,37.429857322697956],[127.0709525095692,37.430213064780986],[127.0824318711051,37.441579869458856],[127.08785512511972,37.4448942710183],[127.10381098959415,37.45992805535605],[127.12231869169679,37.46533069344724],[127.13911958707592,37.47410412875819],[127.15240961426693,37.48629779515135],[127.1600262140979,37.49437455423641],[127.15907444345594,37.501879169843065],[127.1550487244351,37.53574961164292],[127.18379492506567,37.545574310609254],[127.18262429506761,37.55193794904104]]]}}]}